IRIDIUM 8 [+]           
1 24792U 97020A   09011.63091200 -.00000027  00000-0 -16855-4 0  4674
2 24792  86.3992 165.3307 0002219  83.9314 276.2133 14.34216518611940
IRIDIUM 7 [+]           
1 24793U 97020B   09011.48502972  .00000081  00000-0  21900-4 0  4632
2 24793  86.3997 165.5173 0002167  81.1068 279.0368 14.34216887611925
IRIDIUM 6 [+]           
1 24794U 97020C   09011.47870139  .00000041  00000-0  77211-5 0  2579
2 24794  86.3996 165.5102 0002002  77.5410 282.6003 14.34216185611922
IRIDIUM 5 [+]           
1 24795U 97020D   09011.47234289 -.00000056  00000-0 -27192-4 0  5821
2 24795  86.3974 165.6761 0001170 121.0426 239.0893 14.34216687612008
IRIDIUM 4 [+]           
1 24796U 97020E   09011.63727869 -.00000114  00000-0 -47837-4 0  4856
2 24796  86.3988 165.2348 0002224  82.4413 277.7030 14.34215656611969
IRIDIUM 914 [-]         
1 24836U 97030A   09011.49687568  .00000098  00000-0  26220-4 0  1159
2 24836  86.3938 190.0502 0003437  92.1018 268.0579 14.37419760606514
IRIDIUM 12 [+]          
1 24837U 97030B   09011.55823861 -.00000031  00000-0 -18011-4 0  4752
2 24837  86.3967 196.7844 0002190  77.8598 282.2834 14.34217043605683
IRIDIUM 10 [+]          
1 24839U 97030D   09011.54555604  .00000014  00000-0 -19165-5 0  4729
2 24839  86.3957 196.7879 0002220  78.1698 281.9738 14.34216978605697
IRIDIUM 13 [+]          
1 24840U 97030E   09011.56458223 -.00000040  00000-0 -21330-4 0  4379
2 24840  86.3968 196.8510 0002199  76.7483 283.3951 14.34216913605686
IRIDIUM 16 [-]          
1 24841U 97030F   09011.58789226  .00000099  00000-0  27744-4 0  4571
2 24841  86.4052 197.3468 0000574  29.5368 330.5856 14.35265772605815
IRIDIUM 911 [-]         
1 24842U 97030G   09011.04210284  .00000114  00000-0  28083-4 0  1961
2 24842  86.4460 199.8403 0013074 214.5339 145.5021 14.43149375608627
IRIDIUM 15 [+]          
1 24869U 97034A   09011.62513018  .00000010  00000-0 -36676-5 0  5013
2 24869  86.3954 228.3974 0002203  79.2239 280.9203 14.34220337602663
IRIDIUM 17 [-]          
1 24870U 97034B   09011.17681463  .00000079  00000-0  21163-4 0  4629
2 24870  86.3934 228.5077 0002250  74.8605 285.2854 14.34415103602611
IRIDIUM 920 [-]         
1 24871U 97034C   09011.58393653  .00000205  00000-0  61268-4 0  1365
2 24871  86.3959 221.8222 0013148  24.1311 336.0499 14.38049375603728
IRIDIUM 18 [+]          
1 24872U 97034D   09011.65684135  .00000009  00000-0 -36729-5 0  4655
2 24872  86.3959 228.5213 0002088  76.2645 283.8777 14.34220353602665
IRIDIUM 921 [-]         
1 24873U 97034E   09010.93314400  .00000211  00000-0  15520-4 0  4526
2 24873  86.3865  63.8995 0011154  42.2318 317.9767 14.97072681625686
IRIDIUM 26 [+]          
1 24903U 97043A   09011.64319730  .00000194  00000-0  62074-4 0  5785
2 24903  86.3977 102.2350 0002294  82.4936 277.6522 14.34220000596605
IRIDIUM 25 [+]          
1 24904U 97043B   09011.39583617  .00000115  00000-0  34170-4 0  4749
2 24904  86.3976 102.2901 0002263  85.1938 274.9514 14.34219598596538
IRIDIUM 46 [+]          
1 24905U 97043C   09011.61783178  .00000160  00000-0  49950-4 0  4864
2 24905  86.3986 102.4645 0002327  80.5209 279.6254 14.34219572596577
IRIDIUM 23 [+]          
1 24906U 97043D   09011.59245780  .00000134  00000-0  40798-4 0  4844
2 24906  86.3964 102.1446 0002244  84.6412 275.5044 14.34219601596574
IRIDIUM 22 [+]          
1 24907U 97043E   09011.37680692  .00000162  00000-0  50796-4 0  4565
2 24907  86.3990 102.6080 0002302  85.5037 274.6419 14.34219895596549
DUMMY MASS 1 [-]        
1 24925U 97048A   09011.54135929  .00000102  00000-0  89612-5 0   972
2 24925  86.3322  20.9684 0009434 102.9324 257.2962 14.83817835614909
DUMMY MASS 2 [-]        
1 24926U 97048B   09010.97932925  .00000043  00000-0  17664-5 0   893
2 24926  86.3319  21.8494 0010116 108.5153 251.7172 14.83598241614736
IRIDIUM 29 [+]          
1 24944U 97051A   09011.45630857  .00000147  00000-0  45440-4 0  4307
2 24944  86.3989 133.8691 0002202  79.7979 280.3464 14.34216551593122
IRIDIUM 32 [+]          
1 24945U 97051B   09011.40557065  .00000116  00000-0  34255-4 0  4399
2 24945  86.3985 133.9043 0002251  83.2332 276.9115 14.34216297593130
IRIDIUM 33 [+]          
1 24946U 97051C   09011.48168098  .00000079  00000-0  21131-4 0  4344
2 24946  86.3996 133.9319 0002219  82.6337 277.5111 14.34216200593138
IRIDIUM 28 [-]          
1 24948U 97051E   09011.44884818  .00000083  00000-0  22710-4 0  2894
2 24948  86.3998 134.0332 0001758  87.9233 272.2163 14.34242113593118
IRIDIUM 30 [+]          
1 24949U 97051F   09011.39922921  .00000308  00000-0  10307-3 0  4763
2 24949  86.3998 133.9583 0002165  84.5170 275.6302 14.34217052593117
IRIDIUM 31 [+]          
1 24950U 97051G   09011.39288232  .00000105  00000-0  30534-4 0  4596
2 24950  86.3999 133.9513 0002191  81.6119 278.5323 14.34216377593128
IRIDIUM 19 [+]          
1 24965U 97056A   09011.44699821 -.00000006  00000-0 -91353-5 0  4312
2 24965  86.3997 165.3825 0002188  80.5442 279.5985 14.34216067591275
IRIDIUM 35 [+]          
1 24966U 97056B   09011.52944306  .00000011  00000-0 -31240-5 0  4777
2 24966  86.3994 165.3732 0002132  80.8820 279.2614 14.34216240591260
IRIDIUM 36 [-]          
1 24967U 97056C   09011.51979577  .00000103  00000-0  29800-4 0  4156
2 24967  86.4002 165.4442 0002173  78.5519 281.5921 14.34284869591400
IRIDIUM 37 [+]          
1 24968U 97056D   09011.57383951 -.00000021  00000-0 -14530-4 0  4502
2 24968  86.3996 165.4492 0002231  81.9002 278.2447 14.34216120591273
IRIDIUM 34 [+]          
1 24969U 97056E   09011.45332515  .00000053  00000-0  11913-4 0  4347
2 24969  86.3997 165.4459 0002155  80.6773 279.4656 14.34216903591256
IRIDIUM 43 [+]          
1 25039U 97069A   09011.65049963  .00000002  00000-0 -63414-5 0  4332
2 25039  86.3959 228.5414 0002196  80.1152 280.0285 14.34220349585063
IRIDIUM 41 [+]          
1 25040U 97069B   09011.64415936  .00000012  00000-0 -27790-5 0  4271
2 25040  86.3955 228.4586 0002183  79.7600 280.3835 14.34220142585063
IRIDIUM 40 [+]          
1 25041U 97069C   09011.59976015  .00000042  00000-0  80261-5 0  4517
2 25041  86.3954 228.4470 0002179  80.1130 280.0310 14.34220454585076
IRIDIUM 39 [+]          
1 25042U 97069D   09011.60608768  .00000114  00000-0  33491-4 0  4306
2 25042  86.3955 228.5997 0001973  77.1069 283.0335 14.34222771585053
IRIDIUM 38 [-]          
1 25043U 97069E   09011.65796884  .00000156  00000-0  48197-4 0  4528
2 25043  86.3951 227.8890 0001312  75.4648 284.6687 14.34679509585169
IRIDIUM 42 [+]          
1 25077U 97077A   09011.59341688 -.00000002  00000-0 -77517-5 0  4391
2 25077  86.3955 228.5225 0002162  80.9900 279.1532 14.34220336580912
IRIDIUM 44 [-]          
1 25078U 97077B   09011.06321198  .00000083  00000-0  21532-4 0   149
2 25078  86.3937 224.5135 0000973  27.3908 332.7350 14.36528584581373
IRIDIUM 45 [+]          
1 25104U 97082A   09011.33241134  .00000109  00000-0  31701-4 0  3901
2 25104  86.3973 102.3449 0002250  83.0364 277.1082 14.34219386579072
IRIDIUM 24 [-]          
1 25105U 97082B   09011.31181504  .00000112  00000-0  30202-4 0   641
2 25105  86.3919  93.5010 0013115  32.1049 328.0940 14.38252213580100
IRIDIUM 47 [+]          
1 25106U 97082C   09011.62417311  .00000135  00000-0  41260-4 0  3806
2 25106  86.3975 102.1652 0002307  81.7904 278.3553 14.34219417579114
IRIDIUM 49 [+]          
1 25108U 97082E   09011.63685570  .00000174  00000-0  55113-4 0  4012
2 25108  86.3977 102.1768 0002283  82.3582 277.7877 14.34219745579125
IRIDIUM 52 [+]          
1 25169U 98010A   09011.59629325 -.00000049  00000-0 -24497-4 0  1787
2 25169  86.3975 196.9209 0002181  78.9303 281.2136 14.34217142570522
IRIDIUM 56 [+]          
1 25170U 98010B   09011.58994868 -.00000075  00000-0 -33999-4 0  4177
2 25170  86.3977 196.9660 0002219  79.4983 280.6456 14.34217134570506
IRIDIUM 54 [+]          
1 25171U 98010C   09011.55189498 -.00000001  00000-0 -74726-5 0  4027
2 25171  86.3963 196.9422 0002204  78.4247 281.7188 14.34217222570663
IRIDIUM 50 [+]          
1 25172U 98010D   09011.58360729 -.00000038  00000-0 -20721-4 0  4215
2 25172  86.3973 196.9008 0002228  80.0981 280.0465 14.34217231570508
IRIDIUM 53 [+]          
1 25173U 98010E   09011.60263382 -.00000043  00000-0 -22485-4 0  4110
2 25173  86.3948 196.9026 0002214  77.4593 282.6849 14.34217320570519
IRIDIUM 51 [S]          
1 25262U 98018A   09011.47509241  .00000070  00000-0  14972-4 0  5132
2 25262  86.4506 165.5232 0002260  75.7841 284.3603 14.42947519568779
IRIDIUM 61 [+]          
1 25263U 98018B   09011.51041950  .00000012  00000-0 -27748-5 0  3676
2 25263  86.3998 165.4532 0002162  80.7964 279.3474 14.34216282565593
IRIDIUM 55 [+]          
1 25272U 98019A   09011.44362551  .00000142  00000-0  43551-4 0  3595
2 25272  86.3993 133.8212 0002233  84.6244 275.5204 14.34216391564785
IRIDIUM 57 [+]          
1 25273U 98019B   09011.62756191  .00000043  00000-0  83136-5 0  3979
2 25273  86.4001 133.9150 0002230  85.1100 275.0350 14.34215967564812
IRIDIUM 58 [+]          
1 25274U 98019C   09011.42459816  .00000067  00000-0  16933-4 0  2089
2 25274  86.4002 134.1053 0002198  81.4522 278.6917 14.34216101564784
IRIDIUM 59 [+]          
1 25275U 98019D   09011.43094228  .00000144  00000-0  44261-4 0   521
2 25275  86.3998 134.1218 0002364  64.0162 296.1274 14.34216431564780
IRIDIUM 60 [+]          
1 25276U 98019E   09011.64658934  .00000079  00000-0  21013-4 0  4324
2 25276  86.3991 133.7730 0002183  87.5242 272.6205 14.34216102564818
IRIDIUM 62 [+]          
1 25285U 98021A   09011.60802152  .00000185  00000-0  58990-4 0  3912
2 25285  86.3947  70.6211 0002412  83.4544 276.6929 14.34224747563761
IRIDIUM 63 [+]          
1 25286U 98021B   09011.61436632  .00000225  00000-0  73104-4 0  4044
2 25286  86.3944  70.6990 0002393  86.0076 274.1405 14.34224647563761
